OBJECT_NAME,OBJECT_ID,EPOCH,MEAN_MOTION,ECCENTRICITY,INCLINATION,RA_OF_ASC_NODE,ARG_OF_PERICENTER,MEAN_ANOMALY,EPHEMERIS_TYPE,CLASSIFICATION_TYPE,NORAD_CAT_ID,ELEMENT_SET_NO,REV_AT_EPOCH,BSTAR,MEAN_MOTION_DOT,MEAN_MOTION_DDOT
GSAT-29,2018-089A,2026-07-14T20:50:35.243808,1.00275871,.00029554,0.0565,246.2149,199.3608,214.9248,0,U,43698,999,2806,0,.75E-6,0
ES'HAIL 2,2018-090A,2026-07-14T22:42:00.673632,1.00270755,.00021957,0.0182,41.5372,117.5524,139.9892,0,U,43700,999,2795,0,.135E-5,0
GEO-KOMPSAT-2A,2018-100A,2026-07-14T17:27:00.252000,1.00269956,.00019612,0.0287,108.8702,352.7689,220.9550,0,U,43823,999,2790,0,-.352E-5,0
GSAT-11,2018-100B,2026-07-14T22:12:21.884256,1.00271019,.000766,0.0530,252.9869,204.7111,242.1751,0,U,43824,999,2775,0,-.86E-6,0
GSAT-7A,2018-105A,2026-07-14T21:01:54.493824,1.00270983,.00016577,0.0838,91.4396,19.7511,199.7612,0,U,43864,999,2772,0,.18E-6,0
COSMOS 2533,2018-107A,2026-07-14T18:52:58.725120,1.00269723,.00010836,0.0399,118.1956,141.8973,25.7778,0,U,43867,999,2772,0,-.46E-6,0
TJS-3,2018-110A,2026-07-13T18:23:41.806176,1.00272063,.0002512,2.6109,80.1709,89.7880,185.8222,0,U,43874,999,2768,0,-.223E-5,0
ZHONGXING-2D,2019-001A,2026-07-14T19:10:04.586016,1.00270942,.00004125,0.0550,231.9164,89.4577,28.7797,0,U,43920,999,5435,0,-.346E-5,0
HELLAS-SAT 4 & SGS-1,2019-007A,2026-07-14T06:45:29.330208,1.00271532,.00057278,0.0672,125.5173,21.8726,285.1324,0,U,44034,999,2763,0,.146E-5,0
GSAT-31,2019-007B,2026-07-14T23:42:21.300192,1.00270708,.00007962,0.0139,95.0520,136.7568,104.4868,0,U,44035,999,2724,0,.116E-5,0
NUSANTARA SATU,2019-009A,2026-07-13T12:36:13.139712,1.00270313,.00046786,0.0316,124.8301,6.3551,135.2754,0,U,44048,999,2703,0,-.239E-5,0
ZHONGXING-6C,2019-012A,2026-07-14T19:10:12.074304,1.00271082,.00144876,0.0911,75.6765,337.9731,297.0120,0,U,44067,999,2701,0,-.344E-5,0
WGS 10 (USA 291),2019-014A,2026-07-14T10:16:52.539168,1.00270690,.00003114,0.0177,45.2250,233.8921,227.6921,0,U,44071,999,2689,0,.4E-6,0
TIANLIAN 2-01,2019-017A,2026-07-14T20:52:21.655776,1.00270822,.00014749,0.6092,83.0550,80.4734,159.3019,0,U,44076,999,2692,0,-.115E-5,0
ARABSAT-6A,2019-021A,2026-07-14T22:06:08.352864,1.00263114,.00024085,0.0448,7.2206,247.4980,40.0703,0,U,44186,999,2643,0,.144E-5,0
BEIDOU-3 IGSO-1,2019-023A,2026-07-13T11:51:18.021312,1.00283496,.00257348,58.7323,37.3789,224.1077,326.8166,0,U,44204,999,747,0,-.204E-5,0
BEIDOU-2 G8,2019-027A,2026-07-14T19:14:11.690880,1.00271788,.00097231,1.7252,74.4886,282.0956,9.1465,0,U,44231,999,2635,0,-.257E-5,0
YAMAL 601,2019-031A,2026-07-14T23:54:55.015776,1.00271117,.00022506,0.0185,84.7339,24.0334,231.8050,0,U,44307,999,2620,0,.111E-5,0
AT&T T-16,2019-034A,2026-07-14T19:46:46.069248,1.00268430,.00006162,0.0157,70.7114,248.2150,169.5701,0,U,44333,999,2591,0,-.123E-5,0
EUTELSAT 7C,2019-034B,2026-07-14T13:26:51.685152,1.00270205,.000313,0.0769,179.8524,279.4611,41.8320,0,U,44334,999,711,0,.4E-6,0
BEIDOU-3 IGSO-2,2019-035A,2026-07-14T19:06:49.896576,1.00257889,.00395362,55.2501,158.6203,216.6664,322.6164,0,U,44337,999,2594,0,-.139E-5,0
COSMOS 2539,2019-048A,2026-07-14T23:05:19.317696,1.00271598,.00008123,0.0358,102.1610,356.5248,192.4498,0,U,44457,999,2550,0,.72E-6,0
EDRS-C,2019-049A,2026-07-14T14:05:22.714080,1.00271140,.0000893,0.0172,104.9935,24.4612,156.8304,0,U,44475,999,2548,0,-.27E-5,0
INTELSAT 39 (IS-39),2019-049B,2026-07-13T22:12:21.718368,1.00272225,.00007329,0.0241,49.4551,282.1376,355.2527,0,U,44476,999,2539,0,0,0
AMOS-17,2019-050A,2026-07-14T20:03:19.301184,1.00273499,.00013146,0.0160,21.0743,98.9788,130.4621,0,U,44479,999,2546,0,.101E-5,0
AEHF-5 (USA 292),2019-051A,2026-07-14T22:24:57.847968,1.00273824,.00649782,1.4317,338.3913,357.5726,26.1207,0,U,44481,999,2554,0,-.265E-5,0
EUTELSAT 5 WEST B,2019-067A,2026-07-14T15:06:19.025568,1.00269913,.00030963,0.0701,333.5012,138.5371,42.0158,0,U,44624,999,2471,0,-.51E-6,0
MEV-1,2019-067B,2026-06-16T22:18:40.152960,1.00269616,.00027946,0.8740,268.9828,179.8034,307.2103,0,U,44625,999,6174,0,-.149E-5,0
TJS-4,2019-070A,2026-07-14T17:01:24.225888,1.00257855,.00013861,0.1149,260.5370,318.2730,52.6242,0,U,44637,999,2481,0,-.175E-5,0
TIBA-1,2019-080A,2026-07-14T20:58:38.589600,1.00270659,.00018863,0.0520,15.1672,111.2490,156.4432,0,U,44800,999,2433,0,.147E-5,0
INMARSAT GX5,2019-080B,2026-07-14T22:26:29.610816,1.00272576,.00022643,0.0349,357.8253,129.0197,153.5926,0,U,44801,999,706,0,.66E-6,0
JCSAT-18 (KACIFIC 1),2019-091A,2026-07-14T14:52:04.547712,1.00269316,.0000501,0.0546,235.7654,26.7509,42.9657,0,U,44868,999,2428,0,-.209E-5,0
